{
    "links": {
        "self": "http://www.neowsapp.com/rest/v1/neo/3392371?api_key=iIulBulltgU6a56xZRHN4H3l9WmuAYTsLGpBGhQ2"
    },
    "id": "3392371",
    "neo_reference_id": "3392371",
    "name": "(2007 VW7)",
    "designation": "2007 VW7",
    "nasa_jpl_url": "http://ssd.jpl.nasa.gov/sbdb.cgi?sstr=3392371",
    "absolute_magnitude_h": 25.1,
    "estimated_diameter": {
        "kilometers": {
            "estimated_diameter_min": 0.0253837029,
            "estimated_diameter_max": 0.0567596853
        },
        "meters": {
            "estimated_diameter_min": 25.3837029364,
            "estimated_diameter_max": 56.7596852866
        },
        "miles": {
            "estimated_diameter_min": 0.0157726969,
            "estimated_diameter_max": 0.0352688224
        },
        "feet": {
            "estimated_diameter_min": 83.279867942,
            "estimated_diameter_max": 186.2194458756
        }
    },
    "is_potentially_hazardous_asteroid": false,
    "close_approach_data": [
        {
            "close_approach_date": "2004-10-18",
            "close_approach_date_full": "2004-Oct-18 18:24",
            "epoch_date_close_approach": 1098123840000,
            "relative_velocity": {
                "kilometers_per_second": "16.0404958915",
                "kilometers_per_hour": "57745.7852092744",
                "miles_per_hour": "35880.9852596183"
            },
            "miss_distance": {
                "astronomical": "0.4240967503",
                "lunar": "164.9736358667",
                "kilometers": "63443970.518801861",
                "miles": "39422255.2461172418"
            },
            "orbiting_body": "Earth"
        },
        {
            "close_approach_date": "2007-11-08",
            "close_approach_date_full": "2007-Nov-08 13:04",
            "epoch_date_close_approach": 1194527040000,
            "relative_velocity": {
                "kilometers_per_second": "7.2493934763",
                "kilometers_per_hour": "26097.8165145991",
                "miles_per_hour": "16216.1682670852"
            },
            "miss_distance": {
                "astronomical": "0.0576026712",
                "lunar": "22.4074390968",
                "kilometers": "8617236.917830344",
                "miles": "5354502.7291489872"
            },
            "orbiting_body": "Earth"
        },
        {
            "close_approach_date": "2010-11-24",
            "close_approach_date_full": "2010-Nov-24 21:19",
            "epoch_date_close_approach": 1290633540000,
            "relative_velocity": {
                "kilometers_per_second": "12.4060131815",
                "kilometers_per_hour": "44661.6474535498",
                "miles_per_hour": "27751.0108857904"
            },
            "miss_distance": {
                "astronomical": "0.4440433199",
                "lunar": "172.7328514411",
                "kilometers": "66427934.844768613",
                "miles": "41276404.7002203394"
            },
            "orbiting_body": "Earth"
        }
    ],
    "orbital_data": {
        "orbit_id": "9",
        "orbit_determination_date": "2017-04-06 09:05:22",
        "first_observation_date": "2007-11-04",
        "last_observation_date": "2007-11-17",
        "data_arc_in_days": 13,
        "observations_used": 28,
        "orbit_uncertainty": "8",
        "minimum_orbit_intersection": ".0570557",
        "jupiter_tisserand_invariant": "4.874",
        "epoch_osculation": "2454410.5",
        "eccentricity": ".2277857630938647",
        "semi_major_axis": "1.329787700534059",
        "inclination": "12.48128618551631",
        "ascending_node_longitude": "220.8720184952273",
        "orbital_period": "560.1081531973418",
        "perihelion_distance": "1.026880994415073",
        "perihelion_argument": "209.6634359665624",
        "aphelion_distance": "1.632694406653046",
        "perihelion_time": "2454437.345570009865",
        "mean_anomaly": "342.7454659454915",
        "mean_motion": ".6427330113746119",
        "equinox": "J2000",
        "orbit_class": {
            "orbit_class_type": "AMO",
            "orbit_class_description": "Near-Earth asteroid orbits similar to that of 1221 Amor",
            "orbit_class_range": "1.017 AU < q (perihelion) < 1.3 AU"
        }
    },
    "is_sentry_object": false
}